{"type": "FeatureCollection", "features": [ {"type": "Feature", "properties": {"norad_id": 44476, "name": "INTELSAT 39 (IS-39)", "group": "intelsat", "lat": 0.03386353891168204, "lon": 67.78033461569784, "alt_km": 35786.876383613126, "timestamp": "2025-12-02T19:35:50.229741+00:00", "meta": {"OBJECT_NAME": "INTELSAT 39 (IS-39)", "OBJECT_ID": "2019-049B", "EPOCH": "2025-12-02T08:56:22.873344", "MEAN_MOTION": 1.00267705, "ECCENTRICITY": 0.0001092, "INCLINATION": 0.015, "RA_OF_ASC_NODE": 305.5203, "ARG_OF_PERICENTER": 208.2763, "MEAN_ANOMALY": 113.7284, "EPHEMERIS_TYPE": 0, "CLASSIFICATION_TYPE": "U", "NORAD_CAT_ID": 44476, "ELEMENT_SET_NO": 999, "REV_AT_EPOCH": 2315, "BSTAR": 0, "MEAN_MOTION_DOT": 5.5e-07, "MEAN_MOTION_DDOT": 0}, "tle": {"line1": "1 44476U 19049B   25336.37248696  .00000055  00000+0  00000+0 0  9990", "line2": "2 44476   0.0150 305.5203 0001092 208.2763 113.7284  1.00267705 23156"}}, "geometry": {"type": "Point", "coordinates": [67.78033461569784, 0.03386353891168204]}}, {"type": "Feature", "properties": {"norad_id": 46114, "name": "GALAXY 30 (G-30)", "group": "intelsat", "lat": -0.031565425387480646, "lon": -119.15014379595783, "alt_km": 35775.84673867943, "timestamp": "2025-12-02T19:35:50.229753+00:00", "meta": {"OBJECT_NAME": "GALAXY 30 (G-30)", "OBJECT_ID": "2020-056C", "EPOCH": "2025-12-02T10:45:38.709216", "MEAN_MOTION": 1.00272614, "ECCENTRICITY": 0.0002388, "INCLINATION": 0.013, "RA_OF_ASC_NODE": 294.9342, "ARG_OF_PERICENTER": 315.3424, "MEAN_ANOMALY": 217.6932, "EPHEMERIS_TYPE": 0, "CLASSIFICATION_TYPE": "U", "NORAD_CAT_ID": 46114, "ELEMENT_SET_NO": 999, "REV_AT_EPOCH": 1932, "BSTAR": 0, "MEAN_MOTION_DOT": 5.7e-07, "MEAN_MOTION_DDOT": 0}, "tle": {"line1": "1 46114U 20056C   25336.44836469  .00000057  00000+0  00000+0 0  9992", "line2": "2 46114   0.0130 294.9342 0002388 315.3424 217.6932  1.00272614 19326"}}, "geometry": {"type": "Point", "coordinates": [-119.15014379595783, -0.031565425387480646]}}, {"type": "Feature", "properties": {"norad_id": 54026, "name": "GALAXY 33 (G-33)", "group": "intelsat", "lat": -0.03640635054338244, "lon": -127.14942857547318, "alt_km": 35777.88543783829, "timestamp": "2025-12-02T19:35:50.229764+00:00", "meta": {"OBJECT_NAME": "GALAXY 33 (G-33)", "OBJECT_ID": "2022-128A", "EPOCH": "2025-12-02T11:02:38.577408", "MEAN_MOTION": 1.00272387, "ECCENTRICITY": 0.0001945, "INCLINATION": 0.0132, "RA_OF_ASC_NODE": 331.7136, "ARG_OF_PERICENTER": 275.0197, "MEAN_ANOMALY": 217.4995, "EPHEMERIS_TYPE": 0, "CLASSIFICATION_TYPE": "U", "NORAD_CAT_ID": 54026, "ELEMENT_SET_NO": 999, "REV_AT_EPOCH": 1177, "BSTAR": 0, "MEAN_MOTION_DOT": 9.9e-07, "MEAN_MOTION_DDOT": 0}, "tle": {"line1": "1 54026U 22128A   25336.46016872  .00000099  00000+0  00000+0 0  9991", "line2": "2 54026   0.0132 331.7136 0001945 275.0197 217.4995  1.00272387 11772"}}, "geometry": {"type": "Point", "coordinates": [-127.14942857547318, -0.03640635054338244]}}, {"type": "Feature", "properties": {"norad_id": 54027, "name": "GALAXY 34 (G-34)", "group": "intelsat", "lat": -0.03807660125811859, "lon": -123.15165192867381, "alt_km": 35779.784348292356, "timestamp": "2025-12-02T19:35:50.229777+00:00", "meta": {"OBJECT_NAME": "GALAXY 34 (G-34)", "OBJECT_ID": "2022-128B", "EPOCH": "2025-12-02T10:45:38.709216", "MEAN_MOTION": 1.00273114, "ECCENTRICITY": 0.0001418, "INCLINATION": 0.0144, "RA_OF_ASC_NODE": 321.8387, "ARG_OF_PERICENTER": 285.835, "MEAN_ANOMALY": 216.2925, "EPHEMERIS_TYPE": 0, "CLASSIFICATION_TYPE": "U", "NORAD_CAT_ID": 54027, "ELEMENT_SET_NO": 999, "REV_AT_EPOCH": 1194, "BSTAR": 0, "MEAN_MOTION_DOT": 7.9e-07, "MEAN_MOTION_DDOT": 0}, "tle": {"line1": "1 54027U 22128B   25336.44836469  .00000079  00000+0  00000+0 0  9990", "line2": "2 54027   0.0144 321.8387 0001418 285.8350 216.2925  1.00273114 11947"}}, "geometry": {"type": "Point", "coordinates": [-123.15165192867381, -0.03807660125811859]}}, {"type": "Feature", "properties": {"norad_id": 54243, "name": "GALAXY 31 (G-31)", "group": "intelsat", "lat": -0.03528759927689112, "lon": -115.18379171445682, "alt_km": 35777.95042454098, "timestamp": "2025-12-02T19:35:50.229788+00:00", "meta": {"OBJECT_NAME": "GALAXY 31 (G-31)", "OBJECT_ID": "2022-153A", "EPOCH": "2025-12-02T10:45:38.709216", "MEAN_MOTION": 1.00271586, "ECCENTRICITY": 0.0002073, "INCLINATION": 0.0127, "RA_OF_ASC_NODE": 330.9706, "ARG_OF_PERICENTER": 295.3373, "MEAN_ANOMALY": 205.6338, "EPHEMERIS_TYPE": 0, "CLASSIFICATION_TYPE": "U", "NORAD_CAT_ID": 54243, "ELEMENT_SET_NO": 999, "REV_AT_EPOCH": 516, "BSTAR": 0, "MEAN_MOTION_DOT": 0, "MEAN_MOTION_DDOT": 0}, "tle": {"line1": "1 54243U 22153A   25336.44836469  .00000000  00000+0  00000+0 0  9992", "line2": "2 54243   0.0127 330.9706 0002073 295.3373 205.6338  1.00271586  5161"}}, "geometry": {"type": "Point", "coordinates": [-115.18379171445682, -0.03528759927689112]}}, {"type": "Feature", "properties": {"norad_id": 54244, "name": "GALAXY 32 (G-32)", "group": "intelsat", "lat": -0.02294363197104286, "lon": -85.16138911569827, "alt_km": 35777.43141851259, "timestamp": "2025-12-02T19:35:50.229800+00:00", "meta": {"OBJECT_NAME": "GALAXY 32 (G-32)", "OBJECT_ID": "2022-153B", "EPOCH": "2025-12-02T11:10:37.032096", "MEAN_MOTION": 1.0027048, "ECCENTRICITY": 0.0002464, "INCLINATION": 0.01, "RA_OF_ASC_NODE": 320.0818, "ARG_OF_PERICENTER": 344.284, "MEAN_ANOMALY": 203.865, "EPHEMERIS_TYPE": 0, "CLASSIFICATION_TYPE": "U", "NORAD_CAT_ID": 54244, "ELEMENT_SET_NO": 999, "REV_AT_EPOCH": 1117, "BSTAR": 0, "MEAN_MOTION_DOT": -1.54e-06, "MEAN_MOTION_DDOT": 0}, "tle": {"line1": "1 54244U 22153B   25336.46570639 -.00000154  00000+0  00000+0 0  9990", "line2": "2 54244   0.0100 320.0818 0002464 344.2840 203.8650  1.00270480 11171"}}, "geometry": {"type": "Point", "coordinates": [-85.16138911569827, -0.02294363197104286]}}, {"type": "Feature", "properties": {"norad_id": 54741, "name": "GALAXY 35 (G-35)", "group": "intelsat", "lat": -0.027716614644437934, "lon": -87.26533790061913, "alt_km": 35775.15649360102, "timestamp": "2025-12-02T19:35:50.229811+00:00", "meta": {"OBJECT_NAME": "GALAXY 35 (G-35)", "OBJECT_ID": "2022-170A", "EPOCH": "2025-12-02T08:12:19.589760", "MEAN_MOTION": 1.00269326, "ECCENTRICITY": 0.0002817, "INCLINATION": 0.017, "RA_OF_ASC_NODE": 316.6436, "ARG_OF_PERICENTER": 303.5451, "MEAN_ANOMALY": 201.2251, "EPHEMERIS_TYPE": 0, "CLASSIFICATION_TYPE": "U", "NORAD_CAT_ID": 54741, "ELEMENT_SET_NO": 999, "REV_AT_EPOCH": 1092, "BSTAR": 0, "MEAN_MOTION_DOT": 0, "MEAN_MOTION_DDOT": 0}, "tle": {"line1": "1 54741U 22170A   25336.34189340  .00000000  00000+0  00000+0 0  9992", "line2": "2 54741   0.0170 316.6436 0002817 303.5451 201.2251  1.00269326 10923"}}, "geometry": {"type": "Point", "coordinates": [-87.26533790061913, -0.027716614644437934]}}, {"type": "Feature", "properties": {"norad_id": 54742, "name": "GALAXY 36 (G-36)", "group": "intelsat", "lat": -0.0033995940434134483, "lon": -83.143601911809, "alt_km": 35784.44233615614, "timestamp": "2025-12-02T19:35:50.229823+00:00", "meta": {"OBJECT_NAME": "GALAXY 36 (G-36)", "OBJECT_ID": "2022-170B", "EPOCH": "2025-12-02T08:13:19.496064", "MEAN_MOTION": 1.00270657, "ECCENTRICITY": 5.56e-05, "INCLINATION": 0.0194, "RA_OF_ASC_NODE": 260.9589, "ARG_OF_PERICENTER": 343.2506, "MEAN_ANOMALY": 221.5777, "EPHEMERIS_TYPE": 0, "CLASSIFICATION_TYPE": "U", "NORAD_CAT_ID": 54742, "ELEMENT_SET_NO": 999, "REV_AT_EPOCH": 1080, "BSTAR": 0, "MEAN_MOTION_DOT": -1.64e-06, "MEAN_MOTION_DDOT": 0}, "tle": {"line1": "1 54742U 22170B   25336.34258676 -.00000164  00000+0  00000+0 0  9994", "line2": "2 54742   0.0194 260.9589 0000556 343.2506 221.5777  1.00270657 10804"}}, "geometry": {"type": "Point", "coordinates": [-83.143601911809, -0.0033995940434134483]}}, {"type": "Feature", "properties": {"norad_id": 57493, "name": "GALAXY 37 (G-37)", "group": "intelsat", "lat": -0.036847884655567764, "lon": -121.14854648852824, "alt_km": 35775.82077368314, "timestamp": "2025-12-02T19:35:50.229834+00:00", "meta": {"OBJECT_NAME": "GALAXY 37 (G-37)", "OBJECT_ID": "2023-112A", "EPOCH": "2025-12-02T10:45:38.709216", "MEAN_MOTION": 1.00273182, "ECCENTRICITY": 0.0002443, "INCLINATION": 0.0181, "RA_OF_ASC_NODE": 295.9605, "ARG_OF_PERICENTER": 320.8736, "MEAN_ANOMALY": 209.1407, "EPHEMERIS_TYPE": 0, "CLASSIFICATION_TYPE": "U", "NORAD_CAT_ID": 57493, "ELEMENT_SET_NO": 999, "REV_AT_EPOCH": 857, "BSTAR": 0, "MEAN_MOTION_DOT": 6.8e-07, "MEAN_MOTION_DDOT": 0}, "tle": {"line1": "1 57493U 23112A   25336.44836469  .00000068  00000+0  00000+0 0  9992", "line2": "2 57493   0.0181 295.9605 0002443 320.8736 209.1407  1.00273182  8575"}}, "geometry": {"type": "Point", "coordinates": [-121.14854648852824, -0.036847884655567764]}}]}